DELTA 1 R/B             
1 20323U 89089B   25324.22107695  .00000424  00000+0  11336-3 0  9998
2 20323  97.0770 184.0256 0070701 108.0667 252.8250 14.50545992879867
ARIANE 40 R/B           
1 20443U 90005H   25324.15329710  .00000360  00000+0  12825-3 0  9990
2 20443  98.3276  22.9665 0010423 168.4059 191.7371 14.39773942877047
DELTA 2 R/B(1)          
1 20453U 90008B   25324.25004261  .00033997  00000+0  57721-3 0  9992
2 20453  35.6053 165.5187 0116116 332.9489  26.5225 15.43149058909151
COSMOS 2058             
1 20465U 90010A   25324.23195354  .00003281  00000+0  19891-3 0  9999
2 20465  82.4630 155.1741 0010261   0.7946 359.3298 15.10204254925719
SL-14 R/B               
1 20466U 90010B   25324.21654199  .00000507  00000+0  58765-4 0  9997
2 20466  82.5039  10.1997 0018494 303.0917  56.8522 14.83442084912258
SL-14 R/B               
1 20511U 90018B   25324.06161126  .00000485  00000+0  57958-4 0  9990
2 20511  82.5199 325.5641 0017972  92.7918 267.5353 14.82014162906345
HST                     
1 20580U 90037B   25323.99496954  .00007162  00000+0  24976-3 0  9990
2 20580  28.4690  67.2438 0001614 359.6283   0.4311 15.27611976756512
SL-16 R/B               
1 20625U 90046B   25324.26564629  .00000041  00000+0  45594-4 0  9995
2 20625  70.9955 167.7191 0012309 114.8309 245.4095 14.14990130832919
COSMOS 2084             
1 20663U 90055A   25324.24183015  .00002468  00000+0  18596-3 0  9997
2 20663  62.7914 348.6406 0035279 171.9756 188.1917 15.04826395919840
SL-6 R/B(2)             
1 20666U 90055D   25324.27963941  .00002568  00000+0  20465-3 0  9996
2 20666  62.7835 265.7207 0011068 289.8864  70.1042 15.02924928921742
SL-8 R/B                
1 20775U 90078B   25324.23009966  .00020911  00000+0  64643-3 0  9994
2 20775  82.9054 349.4371 0379010  21.3528 340.3029 14.84623665793031
SL-8 R/B                
1 21088U 91006B   25324.31644446  .00000102  00000+0  87312-4 0  9990
2 21088  82.9422 251.3909 0022259 345.2468 127.6653 13.77486017749014
OKEAN-3                 
1 21397U 91039A   25323.79551672  .00003367  00000+0  24202-3 0  9992
2 21397  82.5163  83.2489 0014194 350.8090   9.2874 15.03897158848510
COSMOS 2151             
1 21422U 91042A   25324.20361585  .00001428  00000+0  11371-3 0  9993
2 21422  82.4976 189.2171 0014102  71.0947 289.1805 14.99574577846788
SL-14 R/B               
1 21423U 91042B   25324.29427979  .00000502  00000+0  60682-4 0  9995
2 21423  82.4914 322.7743 0015678 237.8217 122.1477 14.81709316836873
ERS-1                   
1 21574U 91050A   25324.00529110  .00000370  00000+0  13325-3 0  9994
2 21574  98.7915 334.4903 0032269 165.9198 194.2896 14.39340039799951
ARIANE 40 R/B           
1 21610U 91050F   25324.10898175  .00000399  00000+0  13232-3 0  9994
2 21610  98.2199  15.3532 0004030  60.0013 300.1577 14.42786273803194
INTERCOSMOS 25          
1 21819U 91086A   25324.26108782  .00001467  00000+0  28758-3 0  9995
2 21819  82.6083  16.1659 1487771 352.8645   5.3166 12.11628754483436
SL-8 R/B                
1 21876U 92008B   25324.13655455  .00000137  00000+0  12494-3 0  9996
2 21876  82.9273 349.2603 0036110  81.2281 338.5656 13.75951973694350
SL-8 R/B                
1 21938U 92020B   25324.23960689  .00000088  00000+0  75662-4 0  9990
2 21938  82.9316 235.0236 0027726 242.5847 282.0914 13.75522999686087
USA 81                  
1 21949U 92023A   25324.18981075  .00000221  00000+0  74584-4 0  9992
2 21949  85.0102 194.5792 0002412  70.0221 290.1231 14.32315625 79119
COSMOS 2219             
1 22219U 92076A   25324.22952965 -.00000102  00000+0 -28987-4 0  9998
2 22219  71.0609 246.8851 0018170 358.8605   1.2473 14.14067556702901
SL-16 R/B               
1 22220U 92076B   25324.26013870 -.00000054  00000+0 -30737-5 0  9990
2 22220  71.0009  58.8828 0015205 263.2698 127.2049 14.16835483706332
COSMOS 2221             
1 22236U 92080A   25324.27245399  .00001853  00000+0  16420-3 0  9993
2 22236  82.5065  23.8264 0014250 194.3327 165.7493 14.95641126764437
SL-16 R/B               
1 22285U 92093B   25324.19997876  .00000002  00000+0  25465-4 0  9991
2 22285  71.0218 234.1086 0002248 139.3877 220.7414 14.15428100697668
COSMOS 2228             
1 22286U 92094A   25324.29299375  .00001991  00000+0  17223-3 0  9993
2 22286  82.5176 342.0124 0016754 314.0022  45.9818 14.96582876759699
SL-16 R/B               
1 22566U 93016B   25324.30019191  .00000300  00000+0  17870-3 0  9998
2 22566  71.0075  84.9300 0008651 139.1935 220.9837 14.15286274686694
COSMOS 2242             
1 22626U 93024A   25324.22926944  .00002072  00000+0  18224-3 0  9990
2 22626  82.5208  11.3582 0015235 317.3428  42.6609 14.95977159764022
SL-16 R/B               
1 22803U 93059B   25324.21641202 -.00000082  00000+0 -16695-4 0  9997
2 22803  70.9902 241.9794 0016636   8.9876 351.1542 14.17208887664025
ARIANE 40 R/B           
1 22830U 93061H   25324.20155177  .00000294  00000+0  12387-3 0  9996
2 22830  98.5105  30.1389 0009754 245.4848 114.5319 14.32780894678426
COSMOS 2278             
1 23087U 94023A   25324.25749156  .00000362  00000+0  21389-3 0  9999
2 23087  71.0555  44.0452 0009631 208.8419 151.2172 14.14345320629334
SL-16 R/B               
1 23088U 94023B   25324.21255685 -.00000104  00000+0 -28914-4 0  9993
2 23088  70.9988 300.7940 0001165 136.7737 223.3477 14.14991241630603
SL-16 R/B               
1 23343U 94074B   25324.08108049  .00000567  00000+0  82996-4 0  9990
2 23343  97.7230 354.2836 0005810 207.0130 207.4288 14.79252515671043
SL-16 R/B               
1 23405U 94077B   25324.16618658 -.00000051  00000+0 -16144-5 0  9996
2 23405  70.9829 222.9009 0004404 302.5298  57.5399 14.15548121600732
ARIANE 40+ R/B          
1 23561U 95021B   25324.21981898  .00000380  00000+0  13539-3 0  9990
2 23561  98.4679  32.0780 0007860 108.3866 319.0325 14.39670605603491
SL-16 R/B               
1 23705U 95058B   25324.30907638 -.00000220  00000+0 -88002-4 0  9993
2 23705  71.0226  49.8962 0014975 283.8935  76.0522 14.15475387552378
SL-16 R/B               
1 24298U 96051B   25324.25044481 -.00000028  00000+0  11684-4 0  9994
2 24298  70.7609  46.8852 0018559 289.4492  70.4622 14.12393829506199
ORBVIEW 2 (SEASTAR)     
1 24883U 97037A   25324.19100283  .00000356  00000+0  14036-3 0  9991
2 24883  98.8450 120.6995 0002744  43.4478 316.6922 14.35392877492766
SL-16 R/B               
1 25400U 98043G   25324.13516030  .00000087  00000+0  55358-4 0  9994
2 25400  98.8088 271.8310 0009449 338.3796  21.6984 14.26017566423378
SL-16 R/B               
1 25407U 98045B   25324.23246914 -.00000025  00000+0  11709-4 0  9990
2 25407  71.0123  51.7574 0008292 208.4649 151.6023 14.16168627411609
ISS (ZARYA)             
1 25544U 98067A   25324.22216551  .00014969  00000+0  28011-3 0  9993
2 25544  51.6325 253.9268 0004000 147.6792 212.4442 15.48916399539369
CZ-4B R/B               
1 25732U 99025C   25324.10136582  .00000107  00000+0  72680-4 0  9990
2 25732  98.6802   5.8841 0036150 300.9432 113.1668 14.18235534372639
OKEAN-O                 
1 25860U 99039A   25324.14269130  .00000792  00000+0  11134-3 0  9993
2 25860  97.9636  20.0369 0001195  67.1070 293.0268 14.80106261418181
SL-16 R/B               
1 25861U 99039B   25324.15954877  .00000667  00000+0  91881-4 0  9993
2 25861  98.0159  18.3060 0013559 251.1774 108.7968 14.81539315420649
DELTA 2 R/B             
1 25876U 99041E   25323.91127417  .00001343  00000+0  25563-3 0  9992
2 25876  51.7631  19.5685 0504913  24.4908 337.9135 14.11320720347529
HELIOS 1B               
1 25977U 99064A   25324.26440152  .00002241  00000+0  25578-3 0  9996
2 25977  98.1756 218.2654 0002527  73.5689 286.5804 14.87151895668990
TERRA                   
1 25994U 99068A   25324.27430126  .00000568  00000+0  12512-3 0  9994
2 25994  97.9780  16.7790 0002857 144.2880 303.7907 14.60915543379107
SL-16 R/B               
1 26070U 00006B   25324.21951093 -.00000131  00000+0 -42398-4 0  9993
2 26070  71.0020 328.0104 0017291 340.1857  19.8592 14.15801242333060
TITAN 4B R/B            
1 26474U 00047B   25324.26804973  .00003293  00000+0  21489-3 0  9992
2 26474  67.9903 347.9569 0040907 171.0456 189.1432 15.08553477376409
ENVISAT                 
1 27386U 02009A   25324.31858103  .00000148  00000+0  61942-4 0  9990
2 27386  98.3564 275.6316 0001255  81.7561  38.4416 14.38987373243440
IDEFIX & ARIANE 42P R/B 
1 27422U 02021B   25324.27741271  .00000347  00000+0  14872-3 0  9997
2 27422  98.5753 259.2638 0012297 144.9840 215.2154 14.30926843228374
AQUA                    
1 27424U 02022A   25324.32521762  .00001213  00000+0  25330-3 0  9991
2 27424  98.4004 284.8452 0000628  70.2926  91.6390 14.61732332252752
CZ-4B R/B               
1 27432U 02024C   25324.15195909  .00000066  00000+0  57221-4 0  9993
2 27432  98.9033  12.9988 0049668 335.1477  85.8653 14.14521224213751
MIDORI II (ADEOS-II)    
1 27597U 02056A   25324.10243174  .00000315  00000+0  14186-3 0  9992
2 27597  98.7601 276.9442 0001004  24.6859 335.4371 14.29183580194647
H-2A R/B                
1 27601U 02056E   25324.12823101  .00000291  00000+0  11631-3 0  9999
2 27601  98.3030 283.7898 0071207 127.4760 243.5563 14.33651875198414
CZ-4B R/B               
1 28059U 03049C   25324.24408738  .00000444  00000+0  11358-3 0  9994
2 28059  98.6770 309.9602 0047711 204.4991 155.3937 14.54879951170689
CZ-2C R/B               
1 28222U 04012C   25324.14440298  .00032352  00000+0  50602-3 0  9991
2 28222  97.7460  14.9335 0018303 357.3042   2.8108 15.53517548187217
SL-16 R/B               
1 28353U 04021B   25324.13466484  .00000289  00000+0  17502-3 0  9996
2 28353  70.9997 102.4001 0006309 223.8545 136.2078 14.14578560107342
CZ-4B R/B               
1 28415U 04035C   25324.08617189  .00008099  00000+0  30458-3 0  9996
2 28415  97.3635 354.7384 0033658   0.3215 359.8039 15.26871451163170
